SL-16 R/B               
1 22566U 93016B   26030.19011937  .00000288  00000+0  17225-3 0  9999
2 22566  71.0086 296.0452 0009625   9.3258 350.8042 14.15301690696724
COSMOS 2242             
1 22626U 93024A   26030.25496821  .00003033  00000+0  26483-3 0  9998
2 22626  82.5210 303.4727 0017990  75.6173 284.7045 14.96378951774640
SL-16 R/B               
1 22803U 93059B   26030.22180082 -.00000021  00000+0  13208-4 0  9996
2 22803  70.9897  92.2519 0019550 268.9110  90.9774 14.17223157674086
ARIANE 40 R/B           
1 22830U 93061H   26029.66306069  .00000372  00000+0  15202-3 0  9993
2 22830  98.5001  99.3052 0011370  45.0682 315.1422 14.32839253688511
COSMOS 2278             
1 23087U 94023A   26030.05305799 -.00000156  00000+0 -56753-4 0  9990
2 23087  71.0517 255.9331 0006279  86.4869 273.6972 14.14366398639342
SL-16 R/B               
1 23088U 94023B   26029.76359701 -.00000216  00000+0 -86671-4 0  9998
2 23088  71.0005 152.6362 0004309 321.1134  38.9678 14.15005716640586
SL-16 R/B               
1 23343U 94074B   26030.03647446  .00000777  00000+0  11086-3 0  9993
2 23343  97.7156  62.4114 0006434   0.4842  55.8664 14.79359406681530
SL-16 R/B               
1 23405U 94077B   26030.25506481 -.00000213  00000+0 -84613-4 0  9996
2 23405  70.9821  73.3503 0004704 246.5609 113.5019 14.15557763610798
ARIANE 40+ R/B          
1 23561U 95021B   26030.17034264  .00000454  00000+0  15885-3 0  9994
2 23561  98.4576 102.1595 0005730 254.2623 133.0850 14.39742315613706
SL-16 R/B               
1 23705U 95058B   26030.04815870 -.00000003  00000+0  22860-4 0  9993
2 23705  71.0192 261.3831 0012868 188.5262 171.5645 14.15487906562388
SL-16 R/B               
1 24298U 96051B   26030.07252440  .00000084  00000+0  72028-4 0  9995
2 24298  70.7568 256.9793 0018204 201.2437 158.7929 14.12404647516191
ORBVIEW 2 (SEASTAR)     
1 24883U 97037A   26030.29044343  .00000461  00000+0  17666-3 0  9990
2 24883  98.8502 193.5993 0002560 152.2723 207.8599 14.35463445502964
