CCSDS_OMM_VERS = 2.0
CREATION_DATE  = 
ORIGINATOR     = 

OBJECT_NAME    = SL-16 R/B
OBJECT_ID      = 1993-016B
CENTER_NAME    = EARTH
REF_FRAME      = TEME
TIME_SYSTEM    = UTC
MEAN_ELEMENT_THEORY = SGP/SGP4

EPOCH          = 2026-01-30T04:33:46.313568
MEAN_MOTION    = 14.15301690
ECCENTRICITY   = .00096251
INCLINATION    = 71.0086
RA_OF_ASC_NODE = 296.0452
ARG_OF_PERICENTER = 9.3258
MEAN_ANOMALY   = 350.8042

EPHEMERIS_TYPE = 0
CLASSIFICATION_TYPE = U
NORAD_CAT_ID   = 22566
ELEMENT_SET_NO = 999
REV_AT_EPOCH   = 69672
BSTAR          = .1722508E-3
MEAN_MOTION_DOT = .288E-5
MEAN_MOTION_DDOT = 0

CCSDS_OMM_VERS = 2.0
CREATION_DATE  = 
ORIGINATOR     = 

OBJECT_NAME    = COSMOS 2242
OBJECT_ID      = 1993-024A
CENTER_NAME    = EARTH
REF_FRAME      = TEME
TIME_SYSTEM    = UTC
MEAN_ELEMENT_THEORY = SGP/SGP4

EPOCH          = 2026-01-30T06:07:09.253344
MEAN_MOTION    = 14.96378951
ECCENTRICITY   = .00179909
INCLINATION    = 82.5210
RA_OF_ASC_NODE = 303.4727
ARG_OF_PERICENTER = 75.6173
MEAN_ANOMALY   = 284.7045

EPHEMERIS_TYPE = 0
CLASSIFICATION_TYPE = U
NORAD_CAT_ID   = 22626
ELEMENT_SET_NO = 999
REV_AT_EPOCH   = 77464
BSTAR          = .26482501E-3
MEAN_MOTION_DOT = .3033E-4
MEAN_MOTION_DDOT = 0

CCSDS_OMM_VERS = 2.0
CREATION_DATE  = 
ORIGINATOR     = 

OBJECT_NAME    = SL-16 R/B
OBJECT_ID      = 1993-059B
CENTER_NAME    = EARTH
REF_FRAME      = TEME
TIME_SYSTEM    = UTC
MEAN_ELEMENT_THEORY = SGP/SGP4

EPOCH          = 2026-01-30T05:19:23.590848
MEAN_MOTION    = 14.17223157
ECCENTRICITY   = .00195505
INCLINATION    = 70.9897
RA_OF_ASC_NODE = 92.2519
ARG_OF_PERICENTER = 268.9110
MEAN_ANOMALY   = 90.9774

EPHEMERIS_TYPE = 0
CLASSIFICATION_TYPE = U
NORAD_CAT_ID   = 22803
ELEMENT_SET_NO = 999
REV_AT_EPOCH   = 67408
BSTAR          = .13207565E-4
MEAN_MOTION_DOT = -.21E-6
MEAN_MOTION_DDOT = 0

CCSDS_OMM_VERS = 2.0
CREATION_DATE  = 
ORIGINATOR     = 

OBJECT_NAME    = ARIANE 40 R/B
OBJECT_ID      = 1993-061H
CENTER_NAME    = EARTH
REF_FRAME      = TEME
TIME_SYSTEM    = UTC
MEAN_ELEMENT_THEORY = SGP/SGP4

EPOCH          = 2026-01-29T15:54:48.443616
MEAN_MOTION    = 14.32839253
ECCENTRICITY   = .00113705
INCLINATION    = 98.5001
RA_OF_ASC_NODE = 99.3052
ARG_OF_PERICENTER = 45.0682
MEAN_ANOMALY   = 315.1422

EPHEMERIS_TYPE = 0
CLASSIFICATION_TYPE = U
NORAD_CAT_ID   = 22830
ELEMENT_SET_NO = 999
REV_AT_EPOCH   = 68851
BSTAR          = .15202429E-3
MEAN_MOTION_DOT = .372E-5
MEAN_MOTION_DDOT = 0

CCSDS_OMM_VERS = 2.0
CREATION_DATE  = 
ORIGINATOR     = 

OBJECT_NAME    = COSMOS 2278
OBJECT_ID      = 1994-023A
CENTER_NAME    = EARTH
REF_FRAME      = TEME
TIME_SYSTEM    = UTC
MEAN_ELEMENT_THEORY = SGP/SGP4

EPOCH          = 2026-01-30T01:16:24.210336
MEAN_MOTION    = 14.14366398
ECCENTRICITY   = .00062798
INCLINATION    = 71.0517
RA_OF_ASC_NODE = 255.9331
ARG_OF_PERICENTER = 86.4869
MEAN_ANOMALY   = 273.6972

EPHEMERIS_TYPE = 0
CLASSIFICATION_TYPE = U
NORAD_CAT_ID   = 23087
ELEMENT_SET_NO = 999
REV_AT_EPOCH   = 63934
BSTAR          = -.56752604E-4
MEAN_MOTION_DOT = -.156E-5
MEAN_MOTION_DDOT = 0

CCSDS_OMM_VERS = 2.0
CREATION_DATE  = 
ORIGINATOR     = 

OBJECT_NAME    = SL-16 R/B
OBJECT_ID      = 1994-023B
CENTER_NAME    = EARTH
REF_FRAME      = TEME
TIME_SYSTEM    = UTC
MEAN_ELEMENT_THEORY = SGP/SGP4

EPOCH          = 2026-01-29T18:19:34.781664
MEAN_MOTION    = 14.15005716
ECCENTRICITY   = .0004309
INCLINATION    = 71.0005
RA_OF_ASC_NODE = 152.6362
ARG_OF_PERICENTER = 321.1134
MEAN_ANOMALY   = 38.9678

EPHEMERIS_TYPE = 0
CLASSIFICATION_TYPE = U
NORAD_CAT_ID   = 23088
ELEMENT_SET_NO = 999
REV_AT_EPOCH   = 64058
BSTAR          = -.86671462E-4
MEAN_MOTION_DOT = -.216E-5
MEAN_MOTION_DDOT = 0

CCSDS_OMM_VERS = 2.0
CREATION_DATE  = 
ORIGINATOR     = 

OBJECT_NAME    = SL-16 R/B
OBJECT_ID      = 1994-074B
CENTER_NAME    = EARTH
REF_FRAME      = TEME
TIME_SYSTEM    = UTC
MEAN_ELEMENT_THEORY = SGP/SGP4

EPOCH          = 2026-01-30T00:52:31.393344
MEAN_MOTION    = 14.79359406
ECCENTRICITY   = .00064343
INCLINATION    = 97.7156
RA_OF_ASC_NODE = 62.4114
ARG_OF_PERICENTER = 0.4842
MEAN_ANOMALY   = 55.8664

EPHEMERIS_TYPE = 0
CLASSIFICATION_TYPE = U
NORAD_CAT_ID   = 23343
ELEMENT_SET_NO = 999
REV_AT_EPOCH   = 68153
BSTAR          = .11085882E-3
MEAN_MOTION_DOT = .777E-5
MEAN_MOTION_DDOT = 0

CCSDS_OMM_VERS = 2.0
CREATION_DATE  = 
ORIGINATOR     = 

OBJECT_NAME    = SL-16 R/B
OBJECT_ID      = 1994-077B
CENTER_NAME    = EARTH
REF_FRAME      = TEME
TIME_SYSTEM    = UTC
MEAN_ELEMENT_THEORY = SGP/SGP4

EPOCH          = 2026-01-30T06:07:17.599584
MEAN_MOTION    = 14.15557763
ECCENTRICITY   = .00047047
INCLINATION    = 70.9821
RA_OF_ASC_NODE = 73.3503
ARG_OF_PERICENTER = 246.5609
MEAN_ANOMALY   = 113.5019

EPHEMERIS_TYPE = 0
CLASSIFICATION_TYPE = U
NORAD_CAT_ID   = 23405
ELEMENT_SET_NO = 999
REV_AT_EPOCH   = 61079
BSTAR          = -.84612932E-4
MEAN_MOTION_DOT = -.213E-5
MEAN_MOTION_DDOT = 0

CCSDS_OMM_VERS = 2.0
CREATION_DATE  = 
ORIGINATOR     = 

OBJECT_NAME    = ARIANE 40+ R/B
OBJECT_ID      = 1995-021B
CENTER_NAME    = EARTH
REF_FRAME      = TEME
TIME_SYSTEM    = UTC
MEAN_ELEMENT_THEORY = SGP/SGP4

EPOCH          = 2026-01-30T04:05:17.604096
MEAN_MOTION    = 14.39742315
ECCENTRICITY   = .00057308
INCLINATION    = 98.4576
RA_OF_ASC_NODE = 102.1595
ARG_OF_PERICENTER = 254.2623
MEAN_ANOMALY   = 133.0850

EPHEMERIS_TYPE = 0
CLASSIFICATION_TYPE = U
NORAD_CAT_ID   = 23561
ELEMENT_SET_NO = 999
REV_AT_EPOCH   = 61370
BSTAR          = .15885204E-3
MEAN_MOTION_DOT = .454E-5
MEAN_MOTION_DDOT = 0

CCSDS_OMM_VERS = 2.0
CREATION_DATE  = 
ORIGINATOR     = 

OBJECT_NAME    = SL-16 R/B
OBJECT_ID      = 1995-058B
CENTER_NAME    = EARTH
REF_FRAME      = TEME
TIME_SYSTEM    = UTC
MEAN_ELEMENT_THEORY = SGP/SGP4

EPOCH          = 2026-01-30T01:09:20.911680
MEAN_MOTION    = 14.15487906
ECCENTRICITY   = .00128689
INCLINATION    = 71.0192
RA_OF_ASC_NODE = 261.3831
ARG_OF_PERICENTER = 188.5262
MEAN_ANOMALY   = 171.5645

EPHEMERIS_TYPE = 0
CLASSIFICATION_TYPE = U
NORAD_CAT_ID   = 23705
ELEMENT_SET_NO = 999
REV_AT_EPOCH   = 56238
BSTAR          = .22860145E-4
MEAN_MOTION_DOT = -.3E-7
MEAN_MOTION_DDOT = 0

CCSDS_OMM_VERS = 2.0
CREATION_DATE  = 
ORIGINATOR     = 

OBJECT_NAME    = SL-16 R/B
OBJECT_ID      = 1996-051B
CENTER_NAME    = EARTH
REF_FRAME      = TEME
TIME_SYSTEM    = UTC
MEAN_ELEMENT_THEORY = SGP/SGP4

EPOCH          = 2026-01-30T01:44:26.108160
MEAN_MOTION    = 14.12404647
ECCENTRICITY   = .00182044
INCLINATION    = 70.7568
RA_OF_ASC_NODE = 256.9793
ARG_OF_PERICENTER = 201.2437
MEAN_ANOMALY   = 158.7929

EPHEMERIS_TYPE = 0
CLASSIFICATION_TYPE = U
NORAD_CAT_ID   = 24298
ELEMENT_SET_NO = 999
REV_AT_EPOCH   = 51619
BSTAR          = .72028046E-4
MEAN_MOTION_DOT = .84E-6
MEAN_MOTION_DDOT = 0

CCSDS_OMM_VERS = 2.0
CREATION_DATE  = 
ORIGINATOR     = 

OBJECT_NAME    = ORBVIEW 2 (SEASTAR)
OBJECT_ID      = 1997-037A
CENTER_NAME    = EARTH
REF_FRAME      = TEME
TIME_SYSTEM    = UTC
MEAN_ELEMENT_THEORY = SGP/SGP4

EPOCH          = 2026-01-30T06:58:14.312352
MEAN_MOTION    = 14.35463445
ECCENTRICITY   = .00025608
INCLINATION    = 98.8502
RA_OF_ASC_NODE = 193.5993
ARG_OF_PERICENTER = 152.2723
MEAN_ANOMALY   = 207.8599

EPHEMERIS_TYPE = 0
CLASSIFICATION_TYPE = U
NORAD_CAT_ID   = 24883
ELEMENT_SET_NO = 999
REV_AT_EPOCH   = 50296
BSTAR          = .17665909E-3
MEAN_MOTION_DOT = .461E-5
MEAN_MOTION_DDOT = 0

